{"type": "FeatureCollection", "features": [ {"type": "Feature", "properties": {"norad_id": 41469, "name": "IRNSS-1G", "group": "gnss", "lat": -4.015893935237605, "lon": -21.183925416931775, "alt_km": 35786.06025818768, "timestamp": "2025-12-25T07:41:09.966427+00:00", "meta": {"OBJECT_NAME": "IRNSS-1G", "OBJECT_ID": "2016-027A", "EPOCH": "2025-12-24T19:59:21.646752", "MEAN_MOTION": 1.00274057, "ECCENTRICITY": 0.00026831, "INCLINATION": 4.7642, "RA_OF_ASC_NODE": 101.7886, "ARG_OF_PERICENTER": 327.0032, "MEAN_ANOMALY": 94.21, "EPHEMERIS_TYPE": 0, "CLASSIFICATION_TYPE": "U", "NORAD_CAT_ID": 41469, "ELEMENT_SET_NO": 999, "REV_AT_EPOCH": 3543, "BSTAR": 0, "MEAN_MOTION_DOT": -3.14e-06, "MEAN_MOTION_DDOT": 0}, "tle": {"line1": "1 41469U 16027A   25358.83288943 -.00000314  00000+0  00000+0 0  9995", "line2": "2 41469   4.7642 101.7886 0002683 327.0032  94.2100  1.00274057 35433"}}, "geometry": {"type": "Point", "coordinates": [-21.183925416931775, -4.015893935237605]}}, {"type": "Feature", "properties": {"norad_id": 41549, "name": "GSAT0211 (GALILEO 14)", "group": "gnss", "lat": 54.96549999233253, "lon": -37.02843749913708, "alt_km": 23213.323977890686, "timestamp": "2025-12-25T07:41:09.966438+00:00", "meta": {"OBJECT_NAME": "GSAT0211 (GALILEO 14)", "OBJECT_ID": "2016-030A", "EPOCH": "2025-12-23T23:52:07.352256", "MEAN_MOTION": 1.70473256, "ECCENTRICITY": 0.0004011, "INCLINATION": 55.1486, "RA_OF_ASC_NODE": 226.5135, "ARG_OF_PERICENTER": 16.1635, "MEAN_ANOMALY": 343.9466, "EPHEMERIS_TYPE": 0, "CLASSIFICATION_TYPE": "U", "NORAD_CAT_ID": 41549, "ELEMENT_SET_NO": 999, "REV_AT_EPOCH": 5968, "BSTAR": 0, "MEAN_MOTION_DOT": 7.2e-07, "MEAN_MOTION_DDOT": 0}, "tle": {"line1": "1 41549U 16030A   25357.99452954  .00000072  00000+0  00000+0 0  9999", "line2": "2 41549  55.1486 226.5135 0004011  16.1635 343.9466  1.70473256 59684"}}, "geometry": {"type": "Point", "coordinates": [-37.02843749913708, 54.96549999233253]}}, {"type": "Feature", "properties": {"norad_id": 41550, "name": "GSAT0210 (GALILEO 13)", "group": "gnss", "lat": -47.688486096994275, "lon": 176.5571179322357, "alt_km": 23228.718095071825, "timestamp": "2025-12-25T07:41:09.966449+00:00", "meta": {"OBJECT_NAME": "GSAT0210 (GALILEO 13)", "OBJECT_ID": "2016-030B", "EPOCH": "2025-12-24T06:02:46.975776", "MEAN_MOTION": 1.70473503, "ECCENTRICITY": 5.868e-05, "INCLINATION": 55.148, "RA_OF_ASC_NODE": 226.5045, "ARG_OF_PERICENTER": 166.7017, "MEAN_ANOMALY": 193.3957, "EPHEMERIS_TYPE": 0, "CLASSIFICATION_TYPE": "U", "NORAD_CAT_ID": 41550, "ELEMENT_SET_NO": 999, "REV_AT_EPOCH": 5968, "BSTAR": 0, "MEAN_MOTION_DOT": 7.1e-07, "MEAN_MOTION_DDOT": 0}, "tle": {"line1": "1 41550U 16030B   25358.25193259  .00000071  00000+0  00000+0 0  9990", "line2": "2 41550  55.1480 226.5045 0000586 166.7017 193.3957  1.70473503 59686"}}, "geometry": {"type": "Point", "coordinates": [176.5571179322357, -47.688486096994275]}}, {"type": "Feature", "properties": {"norad_id": 41586, "name": "BEIDOU-2 G7 (C03)", "group": "gnss", "lat": -1.713481160377312, "lon": -40.26976112860951, "alt_km": 35794.44941465575, "timestamp": "2025-12-25T07:41:09.966463+00:00", "meta": {"OBJECT_NAME": "BEIDOU-2 G7 (C03)", "OBJECT_ID": "2016-037A", "EPOCH": "2025-12-24T22:11:03.869376", "MEAN_MOTION": 1.00268877, "ECCENTRICITY": 0.00051981, "INCLINATION": 1.7847, "RA_OF_ASC_NODE": 67.8922, "ARG_OF_PERICENTER": 0.9733, "MEAN_ANOMALY": 108.023, "EPHEMERIS_TYPE": 0, "CLASSIFICATION_TYPE": "U", "NORAD_CAT_ID": 41586, "ELEMENT_SET_NO": 999, "REV_AT_EPOCH": 514, "BSTAR": 0, "MEAN_MOTION_DOT": -3.32e-06, "MEAN_MOTION_DDOT": 0}, "tle": {"line1": "1 41586U 16037A   25358.92435034 -.00000332  00000+0  00000+0 0  9991", "line2": "2 41586   1.7847  67.8922 0005198   0.9733 108.0230  1.00268877  5145"}}, "geometry": {"type": "Point", "coordinates": [-40.26976112860951, -1.713481160377312]}}, {"type": "Feature", "properties": {"norad_id": 41589, "name": "EUTELSAT 117 WEST B (WAAS/PRN 131)", "group": "gnss", "lat": -0.006176389131757488, "lon": 92.3758925549012, "alt_km": 35786.857770472314, "timestamp": "2025-12-25T07:41:09.966477+00:00", "meta": {"OBJECT_NAME": "EUTELSAT 117 WEST B (WAAS/PRN 131)", "OBJECT_ID": "2016-038B", "EPOCH": "2025-12-24T09:59:01.014144", "MEAN_MOTION": 1.00277873, "ECCENTRICITY": 6.384e-05, "INCLINATION": 0.0094, "RA_OF_ASC_NODE": 154.0765, "ARG_OF_PERICENTER": 139.5473, "MEAN_ANOMALY": 192.3072, "EPHEMERIS_TYPE": 0, "CLASSIFICATION_TYPE": "U", "NORAD_CAT_ID": 41589, "ELEMENT_SET_NO": 999, "REV_AT_EPOCH": 3491, "BSTAR": 0, "MEAN_MOTION_DOT": 9e-08, "MEAN_MOTION_DDOT": 0}, "tle": {"line1": "1 41589U 16038B   25358.41598396  .00000009  00000+0  00000+0 0  9990", "line2": "2 41589   0.0094 154.0765 0000638 139.5473 192.3072  1.00277873 34915"}}, "geometry": {"type": "Point", "coordinates": [92.3758925549012, -0.006176389131757488]}}, {"type": "Feature", "properties": {"norad_id": 41859, "name": "GSAT0207 (GALILEO 15)", "group": "gnss", "lat": 42.448804582164584, "lon": -113.20363678067562, "alt_km": 23224.064798970267, "timestamp": "2025-12-25T07:41:09.966489+00:00", "meta": {"OBJECT_NAME": "GSAT0207 (GALILEO 15)", "OBJECT_ID": "2016-069A", "EPOCH": "2025-12-22T04:24:39.710016", "MEAN_MOTION": 1.70474442, "ECCENTRICITY": 0.00024396, "INCLINATION": 55.3874, "RA_OF_ASC_NODE": 105.9888, "ARG_OF_PERICENTER": 317.4324, "MEAN_ANOMALY": 42.5257, "EPHEMERIS_TYPE": 0, "CLASSIFICATION_TYPE": "U", "NORAD_CAT_ID": 41859, "ELEMENT_SET_NO": 999, "REV_AT_EPOCH": 5638, "BSTAR": 0, "MEAN_MOTION_DOT": 6e-08, "MEAN_MOTION_DDOT": 0}, "tle": {"line1": "1 41859U 16069A   25356.18379294  .00000006  00000+0  00000+0 0  9997", "line2": "2 41859  55.3874 105.9888 0002439 317.4324  42.5257  1.70474442 56382"}}, "geometry": {"type": "Point", "coordinates": [-113.20363678067562, 42.448804582164584]}}, {"type": "Feature", "properties": {"norad_id": 41860, "name": "GSAT0212 (GALILEO 16)", "group": "gnss", "lat": -28.001427093482242, "lon": -52.58903045142852, "alt_km": 23231.506773186473, "timestamp": "2025-12-25T07:41:09.966502+00:00", "meta": {"OBJECT_NAME": "GSAT0212 (GALILEO 16)", "OBJECT_ID": "2016-069B", "EPOCH": "2025-12-23T19:07:58.296864", "MEAN_MOTION": 1.70474626, "ECCENTRICITY": 0.0002039, "INCLINATION": 55.3859, "RA_OF_ASC_NODE": 105.9395, "ARG_OF_PERICENTER": 17.7426, "MEAN_ANOMALY": 342.2518, "EPHEMERIS_TYPE": 0, "CLASSIFICATION_TYPE": "U", "NORAD_CAT_ID": 41860, "ELEMENT_SET_NO": 999, "REV_AT_EPOCH": 5666, "BSTAR": 0, "MEAN_MOTION_DOT": 1.3e-07, "MEAN_MOTION_DDOT": 0}, "tle": {"line1": "1 41860U 16069B   25357.79720251  .00000013  00000+0  00000+0 0  9998", "line2": "2 41860  55.3859 105.9395 0002039  17.7426 342.2518  1.70474626 56664"}}, "geometry": {"type": "Point", "coordinates": [-52.58903045142852, -28.001427093482242]}}, {"type": "Feature", "properties": {"norad_id": 41861, "name": "GSAT0213 (GALILEO 17)", "group": "gnss", "lat": -8.907737988293295, "lon": 99.70065569646088, "alt_km": 23220.302691829656, "timestamp": "2025-12-25T07:41:09.966513+00:00", "meta": {"OBJECT_NAME": "GSAT0213 (GALILEO 17)", "OBJECT_ID": "2016-069C", "EPOCH": "2025-12-21T19:38:29.842080", "MEAN_MOTION": 1.70474953, "ECCENTRICITY": 0.00027355, "INCLINATION": 55.3872, "RA_OF_ASC_NODE": 106.002, "ARG_OF_PERICENTER": 282.3014, "MEAN_ANOMALY": 77.6427, "EPHEMERIS_TYPE": 0, "CLASSIFICATION_TYPE": "U", "NORAD_CAT_ID": 41861, "ELEMENT_SET_NO": 999, "REV_AT_EPOCH": 5649, "BSTAR": 0, "MEAN_MOTION_DOT": 4e-08, "MEAN_MOTION_DDOT": 0}, "tle": {"line1": "1 41861U 16069C   25355.81840095  .00000004  00000+0  00000+0 0  9999", "line2": "2 41861  55.3872 106.0020 0002735 282.3014  77.6427  1.70474953 56495"}}, "geometry": {"type": "Point", "coordinates": [99.70065569646088, -8.907737988293295]}}, {"type": "Feature", "properties": {"norad_id": 41862, "name": "GSAT0214 (GALILEO 18)", "group": "gnss", "lat": -54.05310293253615, "lon": -2.1015459943812753, "alt_km": 23223.362316382016, "timestamp": "2025-12-25T07:41:09.966524+00:00", "meta": {"OBJECT_NAME": "GSAT0214 (GALILEO 18)", "OBJECT_ID": "2016-069D", "EPOCH": "2025-12-24T07:27:29.645856", "MEAN_MOTION": 1.70474781, "ECCENTRICITY": 0.00017476, "INCLINATION": 55.3867, "RA_OF_ASC_NODE": 105.9257, "ARG_OF_PERICENTER": 287.2715, "MEAN_ANOMALY": 72.6994, "EPHEMERIS_TYPE": 0, "CLASSIFICATION_TYPE": "U", "NORAD_CAT_ID": 41862, "ELEMENT_SET_NO": 999, "REV_AT_EPOCH": 5666, "BSTAR": 0, "MEAN_MOTION_DOT": 1.5e-07, "MEAN_MOTION_DDOT": 0}, "tle": {"line1": "1 41862U 16069D   25358.31075979  .00000015  00000+0  00000+0 0  9991", "line2": "2 41862  55.3867 105.9257 0001747 287.2715  72.6994  1.70474781 56666"}}, "geometry": {"type": "Point", "coordinates": [-2.1015459943812753, -54.05310293253615]}}, {"type": "Feature", "properties": {"norad_id": 42709, "name": "SES-15 (WAAS/PRN 133)", "group": "gnss", "lat": 0.03614935492866445, "lon": 80.1969451285723, "alt_km": 35787.93461387476, "timestamp": "2025-12-25T07:41:09.966535+00:00", "meta": {"OBJECT_NAME": "SES-15 (WAAS/PRN 133)", "OBJECT_ID": "2017-026A", "EPOCH": "2025-12-24T17:37:15.091680", "MEAN_MOTION": 1.00266846, "ECCENTRICITY": 1.925e-05, "INCLINATION": 0.019, "RA_OF_ASC_NODE": 339.5324, "ARG_OF_PERICENTER": 331.1241, "MEAN_ANOMALY": 277.9993, "EPHEMERIS_TYPE": 0, "CLASSIFICATION_TYPE": "U", "NORAD_CAT_ID": 42709, "ELEMENT_SET_NO": 999, "REV_AT_EPOCH": 568, "BSTAR": 0, "MEAN_MOTION_DOT": 8.1e-07, "MEAN_MOTION_DDOT": 0}, "tle": {"line1": "1 42709U 17026A   25358.73420245  .00000081  00000+0  00000+0 0  9995", "line2": "2 42709   0.0190 339.5324 0000192 331.1241 277.9993  1.00266846  5688"}}, "geometry": {"type": "Point", "coordinates": [80.1969451285723, 0.03614935492866445]}}]}